NORAD_CAT_ID,OBJECT_NAME,OBJECT_TYPE,EPOCH,MEAN_MOTION,ECCENTRICITY,INCLINATION,RA_OF_ASC_NODE,ARG_OF_PERICENTER,MEAN_ANOMALY,BSTAR,MEAN_MOTION_DOT,MEAN_MOTION_DDOT,TLE_LINE0,TLE_LINE1,TLE_LINE2,SEMIMAJOR_AXIS,PERIOD,APOGEE,PERIGEE,DECAYED
53571.0,STARLINK-4584,PAYLOAD,2023-10-30 18:03:31,15.08839149,0.000157,53.2168,318.9647,91.2965,268.8207,0.00012026,1.626e-05,0.0,0 STARLINK-4584,1 53571U 22101AW  23303.75245092  .00001626  00000-0  12026-3 0  9991,2 53571  53.2168 318.9647 0001570  91.2965 268.8207 15.08839149 67162,6917.883,95.438,540.834,538.662,0.0
53571.0,STARLINK-4584,PAYLOAD,2023-10-31 05:11:14,15.08832718,0.0001998,53.2173,316.8837,85.6495,274.4725,7.557e-06,-1.68e-06,0.0,0 STARLINK-4584,1 53571U 22101AW  23304.21613644 -.00000168  00000-0  75570-5 0  9991,2 53571  53.2173 316.8837 0001998  85.6495 274.4725 15.08832718 66549,6917.903,95.438,541.15,538.385,0.0
53571.0,STARLINK-4584,PAYLOAD,2023-10-31 08:22:00,15.08833169,0.0002003,53.218,316.2888,86.3063,273.8158,-1.0172e-05,-4.5e-06,0.0,0 STARLINK-4584,1 53571U 22101AW  23304.34861712 -.00000450  00000-0 -10172-4 0  9997,2 53571  53.2180 316.2888 0002003  86.3063 273.8158 15.08833169 67257,6917.901,95.438,541.152,538.381,0.0
53571.0,STARLINK-4584,PAYLOAD,2023-10-31 17:54:19,15.08837739,0.0001962,53.2182,314.5048,86.2864,273.8353,9.9704e-05,1.299e-05,0.0,0 STARLINK-4584,1 53571U 22101AW  23304.74605700  .00001299  00000-0  99704-4 0  9992,2 53571  53.2182 314.5048 0001962  86.2864 273.8353 15.08837739 67310,6917.887,95.438,541.11,538.395,0.0
53571.0,STARLINK-4584,PAYLOAD,2023-11-01 05:02:01,15.08844446,0.0001902,53.2179,312.4234,86.6975,273.4235,0.00029516,4.413e-05,0.0,0 STARLINK-4584,1 53571U 22101AW  23305.20973548  .00004413  00000-0  29516-3 0  9996,2 53571  53.2179 312.4234 0001902  86.6975 273.4235 15.08844446 66699,6917.867,95.437,541.048,538.416,0.0
53571.0,STARLINK-4584,PAYLOAD,2023-11-01 09:48:10,15.08846942,0.000187,53.2176,311.5311,86.1819,273.9387,0.00032066,4.82e-05,0.0,0 STARLINK-4584,1 53571U 22101AW  23305.40845437  .00004820  00000-0  32066-3 0  9999,2 53571  53.2176 311.5311 0001870  86.1819 273.9387 15.08846942 67415,6917.859,95.437,541.018,538.431,0.0
53571.0,STARLINK-4584,PAYLOAD,2023-11-01 17:45:06,15.08846163,0.0001736,53.2173,310.0464,87.1637,272.9554,0.00022006,3.217e-05,0.0,0 STARLINK-4584,1 53571U 22101AW  23305.73965373  .00003217  00000-0  22006-3 0  9999,2 53571  53.2173 310.0464 0001736  87.1637 272.9554 15.08846163 67460,6917.862,95.437,540.927,538.526,0.0
53571.0,STARLINK-4584,PAYLOAD,2023-11-02 04:52:48,15.08843941,0.000156,53.2176,307.9598,97.8402,262.2767,0.00022923,3.362e-05,0.0,0 STARLINK-4584,1 53571U 22101AW  23306.20333396  .00003362  00000-0  22923-3 0  9995,2 53571  53.2176 307.9598 0001560  97.8402 262.2767 15.08843941 66849,6917.868,95.437,540.813,538.654,0.0
53571.0,STARLINK-4584,PAYLOAD,2023-11-02 09:38:57,15.0885138,0.0001713,53.2173,307.0677,103.1864,256.932,0.0002676,3.975e-05,0.0,0 STARLINK-4584,1 53571U 22101AW  23306.40205031  .00003975  00000-0  26760-3 0  9994,2 53571  53.2173 307.0677 0001713 103.1864 256.9320 15.08851380 67569,6917.846,95.437,540.896,538.526,0.0
53571.0,STARLINK-4584,PAYLOAD,2023-11-03 04:43:35,15.08842822,0.0002174,53.2181,303.5012,102.75,257.3736,7.8117e-05,9.55e-06,0.0,0 STARLINK-4584,1 53571U 22101AW  23307.19693462  .00000955  00000-0  78117-4 0  9999,2 53571  53.2181 303.5012 0002174 102.7500 257.3736 15.08842822 66999,6917.872,95.437,541.241,538.233,0.0
53571.0,STARLINK-4584,PAYLOAD,2023-11-03 06:18:58,15.08842697,0.0001845,53.2174,303.2043,95.5445,264.5758,6.4347e-05,7.36e-06,0.0,0 STARLINK-4584,1 53571U 22101AW  23307.26317471  .00000736  00000-0  64347-4 0  9997,2 53571  53.2174 303.2043 0001845  95.5445 264.5758 15.08842697 67695,6917.872,95.437,541.013,538.461,0.0
53571.0,STARLINK-4584,PAYLOAD,2023-11-03 17:26:40,15.08840427,0.0001986,53.2172,301.1261,76.6657,283.4557,0.00011181,1.492e-05,0.0,0 STARLINK-4584,1 53571U 22101AW  23307.72685878  .00001492  00000-0  11181-3 0  9994,2 53571  53.2172 301.1261 0001986  76.6657 283.4557 15.08840427 67767,6917.879,95.438,541.118,538.37,0.0
53571.0,STARLINK-4584,PAYLOAD,2023-11-04 09:20:31,15.0885089,0.0001707,53.217,298.1491,97.0485,263.0702,0.00047059,7.212e-05,0.0,0 STARLINK-4584,1 53571U 22101AW  23308.38925479  .00007212  00000-0  47059-3 0  9990,2 53571  53.2170 298.1491 0001707  97.0485 263.0702 15.08850890 67178,6917.847,95.437,540.893,538.531,0.0
53571.0,STARLINK-4584,PAYLOAD,2023-11-05 04:25:09,15.08846259,0.0001674,53.2166,294.5818,94.6107,265.5077,0.00026262,3.895e-05,0.0,0 STARLINK-4584,1 53571U 22101AW  23309.18413694  .00003895  00000-0  26262-3 0  9996,2 53571  53.2166 294.5818 0001674  94.6107 265.5077 15.08846259 67292,6917.861,95.437,540.884,538.568,0.0
53571.0,STARLINK-4584,PAYLOAD,2023-11-05 06:00:32,15.08853237,0.000172,53.2179,294.2845,101.2653,258.8533,0.0003774,5.726e-05,0.0,0 STARLINK-4584,1 53571U 22101AW  23309.25037425  .00005726  00000-0  37740-3 0  9996,2 53571  53.2179 294.2845 0001720 101.2653 258.8533 15.08853237 67999,6917.84,95.437,540.895,538.515,0.0
53571.0,STARLINK-4584,PAYLOAD,2023-11-05 15:32:51,15.08849859,0.0001725,53.2178,292.5009,98.6704,261.4484,0.00023447,3.446e-05,0.0,0 STARLINK-4584,1 53571U 22101AW  23309.64781363  .00003446  00000-0  23447-3 0  9992,2 53571  53.2178 292.5009 0001725  98.6704 261.4484 15.08849859 68050,6917.85,95.437,540.909,538.522,0.0
53571.0,STARLINK-4584,PAYLOAD,2023-11-06 02:40:32,15.08865353,0.0001713,53.2169,290.4179,102.3541,257.7643,0.00050158,7.709e-05,0.0,0 STARLINK-4584,1 53571U 22101AW  23310.11148463  .00007709  00000-0  50158-3 0  9999,2 53571  53.2169 290.4179 0001713 102.3541 257.7643 15.08865353 67437,6917.803,95.436,540.853,538.483,0.0
53571.0,STARLINK-4584,PAYLOAD,2023-11-06 05:51:18,15.08873199,0.0001728,53.2172,289.8251,99.6315,260.4873,0.0006074,9.401e-05,0.0,0 STARLINK-4584,1 53571U 22101AW  23310.24396401  .00009401  00000-0  60740-3 0  9999,2 53571  53.2172 289.8251 0001728  99.6315 260.4873 15.08873199 68149,6917.779,95.435,540.839,538.449,0.0
53571.0,STARLINK-4584,PAYLOAD,2023-11-06 15:23:37,15.08855869,0.0001156,53.2177,288.0357,61.6791,298.4317,0.00025224,3.731e-05,0.0,0 STARLINK-4584,1 53571U 22101AW  23310.64140271  .00003731  00000-0  25224-3 0  9993,2 53571  53.2177 288.0357 0001156  61.6791 298.4317 15.08855869 67512,6917.832,95.437,540.497,538.897,0.0
53571.0,STARLINK-4584,PAYLOAD,2023-11-07 04:06:44,15.08804588,0.0001422,53.2174,285.6603,81.7046,278.4108,-0.00067696,-0.00011035,0.0,0 STARLINK-4584,1 53571U 22101AW  23311.17134946 -.00011035  00000-0 -67696-3 0  9991,2 53571  53.2174 285.6603 0001422  81.7046 278.4108 15.08804588 67594,6917.989,95.44,540.837,538.87,0.0
53571.0,STARLINK-4584,PAYLOAD,2023-11-07 05:42:07,15.08815885,0.0001393,53.2179,285.3645,94.119,265.9962,-0.00035024,-5.854e-05,0.0,0 STARLINK-4584,1 53571U 22101AW  23311.23759027 -.00005854  00000-0 -35024-3 0  9993,2 53571  53.2179 285.3645 0001393  94.1190 265.9962 15.08815885 67600,6917.954,95.439,540.783,538.855,0.0
53571.0,STARLINK-4584,PAYLOAD,2023-11-07 15:14:26,15.08823385,0.0001351,53.2179,283.5799,94.8631,265.2516,-0.00019996,-3.467e-05,0.0,0 STARLINK-4584,1 53571U 22101AW  23311.63503060 -.00003467  00000-0 -19996-3 0  9999,2 53571  53.2179 283.5799 0001351  94.8631 265.2516 15.08823385 67669,6917.931,95.439,540.731,538.862,0.0
53571.0,STARLINK-4584,PAYLOAD,2023-11-08 02:22:08,15.08835959,0.0001407,53.2184,281.4986,90.6587,269.4566,0.00012921,1.769e-05,0.0,0 STARLINK-4584,1 53571U 22101AW  23312.09870828  .00001769  00000-0  12921-3 0  9991,2 53571  53.2184 281.4986 0001407  90.6587 269.4566 15.08835959 67735,6917.893,95.438,540.731,538.784,0.0
53571.0,STARLINK-4584,PAYLOAD,2023-11-08 07:08:17,15.08851167,0.000139,53.2179,280.6044,85.6313,274.4838,0.00020511,2.979e-05,0.0,0 STARLINK-4584,1 53571U 22101AW  23312.29742038  .00002979  00000-0  20511-3 0  9992,2 53571  53.2179 280.6044 0001390  85.6313 274.4838 15.08851167 67767,6917.846,95.437,540.673,538.75,0.0
53571.0,STARLINK-4584,PAYLOAD,2023-11-09 03:48:18,15.08838293,0.0001402,53.2189,276.7404,71.0123,289.1021,0.00034467,5.201e-05,0.0,0 STARLINK-4584,1 53571U 22101AW  23313.15854407  .00005201  00000-0  34467-3 0  9998,2 53571  53.2189 276.7404 0001402  71.0123 289.1021 15.08838293 67892,6917.886,95.438,540.72,538.781,0.0
53571.0,STARLINK-4584,PAYLOAD,2023-11-09 05:23:40,15.08848253,0.0001202,53.2189,276.4433,89.4043,270.7087,0.00042844,6.539e-05,0.0,0 STARLINK-4584,1 53571U 22101AW  23313.22477565  .00006539  00000-0  42844-3 0  9995,2 53571  53.2189 276.4433 0001202  89.4043 270.7087 15.08848253 67900,6917.855,95.437,540.552,538.889,0.0
53571.0,STARLINK-4584,PAYLOAD,2023-11-10 03:39:05,15.08849864,0.0001579,53.2193,272.2789,82.9989,277.1183,1.0135e-05,-1.27e-06,0.0,0 STARLINK-4584,1 53571U 22101AW  23314.15214554 -.00000127  00000-0  10135-4 0  9992,2 53571  53.2193 272.2789 0001579  82.9989 277.1183 15.08849864 68040,6917.85,95.437,540.808,538.623,0.0
53571.0,STARLINK-4584,PAYLOAD,2023-11-10 06:49:51,15.08853571,0.0001467,53.2193,271.6826,86.4822,273.6338,3.3418e-05,2.44e-06,0.0,0 STARLINK-4584,1 53571U 22101AW  23314.28462155  .00000244  00000-0  33418-4 0  9996,2 53571  53.2193 271.6826 0001467  86.4822 273.6338 15.08853571 68757,6917.839,95.437,540.719,538.689,0.0
53571.0,STARLINK-4584,PAYLOAD,2023-11-10 14:46:47,15.08848767,0.0001442,53.219,270.1958,91.9264,268.1894,-1.4722e-05,-5.22e-06,0.0,0 STARLINK-4584,1 53571U 22101AW  23314.61582293 -.00000522  00000-0 -14722-4 0  9997,2 53571  53.2190 270.1958 0001442  91.9264 268.1894 15.08848767 68801,6917.854,95.437,540.716,538.721,0.0
53571.0,STARLINK-4584,PAYLOAD,2023-11-11 06:40:37,15.08856183,0.000164,53.2194,267.2214,97.5554,262.5624,-1.9375e-05,-5.97e-06,0.0,0 STARLINK-4584,1 53571U 22101AW  23315.27821448 -.00000597  00000-0 -19375-4 0  9999,2 53571  53.2194 267.2214 0001640  97.5554 262.5624 15.08856183 68216,6917.831,95.437,540.83,538.561,0.0
